{"fetched_at":"2026-03-30T06:02:59Z","count":15439,"tles":[{"name":"STARLINK-6128","line1":"1 57132U 23090AH  26087.60165606  .00000060  00000+0  19490-4 0  9997","line2":"2 57132  43.0023 171.4166 0001190 268.6484  91.4222 15.02533565153078","category":"Starlink"}]}